0 COSMOS 2251 DEB
1 33914U 93036DT  13282.12206738  .00000548  00000-0  47386-3 0  3325
2 33914 074.0878 114.3227 0315812 164.1653 336.9925 13.67866839232395
0 COSMOS 2251 DEB
1 33914U 93036DT  13283.72044913  .00000547  00000-0  47307-3 0  3330
2 33914 074.0877 111.7059 0315782 161.1782 287.9423 13.67868876232610
0 COSMOS 2251 DEB
1 33914U 93036DT  13286.48795440  .00000537  00000-0  46503-3 0  3352
2 33914 074.0878 107.1753 0315675 156.0076 236.0567 13.67871936232986
0 COSMOS 2251 DEB
1 33914U 93036DT  13287.51806039  .00000593  00000-0  51181-3 0  3365
2 33914 074.0880 105.4889 0315635 154.0827 268.6492 13.67873480233129
0 COSMOS 2251 DEB
1 33914U 93036DT  13288.84402101  .00000710  00000-0  60901-3 0  3376
2 33914 074.0882 103.3182 0315572 151.6022 318.1454 13.67875610233311
0 COSMOS 2251 DEB
1 33914U 93036DT  13290.09344800  .00000655  00000-0  56353-3 0  3382
2 33914 074.0884 101.2727 0315519 149.2652 350.7691 13.67877700233483
0 COSMOS 2251 DEB
1 33914U 93036DT  13291.18581200  .00000654  00000-0  56219-3 0  3391
2 33914 074.0887 099.4846 0315470 147.2175 329.9719 13.67879364233634
0 COSMOS 2251 DEB
1 33914U 93036DT  13292.49168483  .00000714  00000-0  61248-3 0  3407
2 33914 074.0889 097.3469 0315432 144.7694 280.5783 13.67881116233800
0 COSMOS 2251 DEB
1 33914U 93036DT  13293.81699238  .00000794  00000-0  67910-3 0  3412
2 33914 074.0890 095.1774 0315408 142.2874 326.8973 13.67882714233993
0 COSMOS 2251 DEB
1 33914U 93036DT  13294.83327728  .00000811  00000-0  69366-3 0  3425
2 33914 074.0891 093.5138 0315366 140.3865 291.4725 13.67884655234126
0 COSMOS 2251 DEB
1 33914U 93036DT  13295.87334356  .00000799  00000-0  68315-3 0  3434
2 33914 074.0891 091.8113 0315327 138.4446 013.1597 13.67886297234276
